NORAD_CAT_ID,OBJECT_NAME,OBJECT_TYPE,EPOCH,MEAN_MOTION,ECCENTRICITY,INCLINATION,RA_OF_ASC_NODE,ARG_OF_PERICENTER,MEAN_ANOMALY,BSTAR,MEAN_MOTION_DOT,MEAN_MOTION_DDOT,TLE_LINE0,TLE_LINE1,TLE_LINE2,SEMIMAJOR_AXIS,PERIOD,APOGEE,PERIGEE,DECAYED
53792.0,STARLINK-4739,PAYLOAD,2023-09-03 05:39:34,15.08834685,0.0001071,53.2189,77.0196,93.5006,266.6108,9.6877e-05,1.254e-05,0.0,0 STARLINK-4739,1 53792U 22111V   23246.23581104  .00001254  00000-0  96877-4 0  9997,2 53792  53.2189  77.0196 0001071  93.5006 266.6108 15.08834685 55038,6917.897,95.438,540.503,539.021,0.0
53792.0,STARLINK-4739,PAYLOAD,2023-09-03 23:08:47,15.08854412,0.0001111,53.2178,73.7473,92.2575,267.8544,5.5228e-05,5.92e-06,0.0,0 STARLINK-4739,1 53792U 22111V   23246.96444158  .00000592  00000-0  55228-4 0  9993,2 53792  53.2178  73.7473 0001111  92.2575 267.8544 15.08854412 54349,6917.836,95.437,540.47,538.933,0.0
53792.0,STARLINK-4739,PAYLOAD,2023-09-04 05:30:21,15.08832636,0.000163,53.2168,72.5543,87.4694,272.6485,0.00014993,2.098e-05,0.0,0 STARLINK-4739,1 53792U 22111V   23247.22941379  .00002098  00000-0  14993-3 0  9996,2 53792  53.2168  72.5543 0001630  87.4694 272.6485 15.08832636 54383,6917.903,95.438,540.896,538.64,0.0
53792.0,STARLINK-4739,PAYLOAD,2023-09-04 13:27:17,15.08828756,0.0001183,53.2182,71.0715,93.5941,266.5187,0.00010552,1.391e-05,0.0,0 STARLINK-4739,1 53792U 22111V   23247.56061942  .00001391  00000-0  10552-3 0  9994,2 53792  53.2182  71.0715 0001183  93.5941 266.5187 15.08828756 55234,6917.915,95.438,540.598,538.961,0.0
53792.0,STARLINK-4739,PAYLOAD,2023-09-04 22:59:35,15.08837196,0.0001337,53.2169,69.2855,87.2603,272.8542,7.362e-05,8.84e-06,0.0,0 STARLINK-4739,1 53792U 22111V   23247.95805364  .00000884  00000-0  73620-4 0  9993,2 53792  53.2169  69.2855 0001337  87.2603 272.8542 15.08837196 54499,6917.889,95.438,540.679,538.829,0.0
53792.0,STARLINK-4739,PAYLOAD,2023-09-05 11:42:41,15.08837634,0.0001304,53.218,66.9068,87.1084,273.0057,2.2189e-05,6.5e-07,0.0,0 STARLINK-4739,1 53792U 22111V   23248.48797500  .00000065  00000-0  22189-4 0  9999,2 53792  53.2180  66.9068 0001304  87.1084 273.0057 15.08837634 55377,6917.888,95.438,540.655,538.851,0.0
53792.0,STARLINK-4739,PAYLOAD,2023-09-06 11:33:28,15.08841054,0.0001208,53.2177,62.4468,87.2801,272.8329,0.00020451,2.968e-05,0.0,0 STARLINK-4739,1 53792U 22111V   23249.48157528  .00002968  00000-0  20451-3 0  9993,2 53792  53.2177  62.4468 0001208  87.2801 272.8329 15.08841054 54727,6917.877,95.437,540.578,538.906,0.0
53792.0,STARLINK-4739,PAYLOAD,2023-09-07 11:24:15,15.08843288,0.0001349,53.2188,57.9868,94.536,265.5786,0.00014672,2.048e-05,0.0,0 STARLINK-4739,1 53792U 22111V   23250.47517378  .00002048  00000-0  14672-3 0  9994,2 53792  53.2188  57.9868 0001349  94.5360 265.5786 15.08843288 55671,6917.87,95.437,540.669,538.802,0.0
53792.0,STARLINK-4739,PAYLOAD,2023-09-07 20:56:33,15.08847897,0.0001399,53.2185,56.2024,96.9298,263.1853,0.00016752,2.38e-05,0.0,0 STARLINK-4739,1 53792U 22111V   23250.87261074  .00002380  00000-0  16752-3 0  9997,2 53792  53.2185  56.2024 0001399  96.9298 263.1853 15.08847897 55731,6917.856,95.437,540.689,538.753,0.0
53792.0,STARLINK-4739,PAYLOAD,2023-09-08 17:36:34,15.08840861,0.0001419,53.219,52.3343,110.7754,249.339,4.7056e-05,4.61e-06,0.0,0 STARLINK-4739,1 53792U 22111V   23251.73373454  .00000461  00000-0  47056-4 0  9999,2 53792  53.2190  52.3343 0001419 110.7754 249.3390 15.08840861 55065,6917.878,95.438,540.724,538.761,0.0
53792.0,STARLINK-4739,PAYLOAD,2023-09-09 14:16:35,15.08842336,0.0001243,53.2189,48.4696,99.5322,260.5811,0.00011172,1.491e-05,0.0,0 STARLINK-4739,1 53792U 22111V   23252.59485192  .00001491  00000-0  11172-3 0  9990,2 53792  53.2189  48.4696 0001243  99.5322 260.5811 15.08842336 55994,6917.873,95.437,540.598,538.878,0.0
53792.0,STARLINK-4739,PAYLOAD,2023-09-09 17:27:21,15.08847133,0.0001173,53.2182,47.8756,85.9083,274.2043,0.00013181,1.811e-05,0.0,0 STARLINK-4739,1 53792U 22111V   23252.72732864  .00001811  00000-0  13181-3 0  9994,2 53792  53.2182  47.8756 0001173  85.9083 274.2043 15.08847133 55216,6917.859,95.437,540.535,538.912,0.0
53792.0,STARLINK-4739,PAYLOAD,2023-09-10 09:21:13,15.08838047,0.0001226,53.2185,44.9038,81.7607,278.3524,0.00010204,1.336e-05,0.0,0 STARLINK-4739,1 53792U 22111V   23253.38973569  .00001336  00000-0  10204-3 0  9991,2 53792  53.2185  44.9038 0001226  81.7607 278.3524 15.08838047 55319,6917.886,95.438,540.599,538.903,0.0
53792.0,STARLINK-4739,PAYLOAD,2023-09-10 14:07:22,15.08837322,0.0001179,53.2188,44.0115,86.6769,273.4358,3.5646e-05,2.79e-06,0.0,0 STARLINK-4739,1 53792U 22111V   23253.58845822  .00000279  00000-0  35646-4 0  9996,2 53792  53.2188  44.0115 0001179  86.6769 273.4358 15.08837322 56147,6917.889,95.438,540.569,538.938,0.0
53792.0,STARLINK-4739,PAYLOAD,2023-09-11 13:58:10,15.08835295,0.0001308,53.2211,39.5522,94.5113,265.6029,-3.3967e-06,-3.42e-06,0.0,0 STARLINK-4739,1 53792U 22111V   23254.58206194 -.00000342  00000-0 -33967-5 0  9998,2 53792  53.2211  39.5522 0001308  94.5113 265.6029 15.08835295 56291,6917.895,95.438,540.665,538.855,0.0
53792.0,STARLINK-4739,PAYLOAD,2023-09-11 17:08:56,15.08840886,0.0001332,53.2199,38.9559,81.4331,278.6812,4.6255e-06,-2.14e-06,0.0,0 STARLINK-4739,1 53792U 22111V   23254.71453866 -.00000214  00000-0  46255-5 0  9994,2 53792  53.2199  38.9559 0001332  81.4331 278.6812 15.08840886 55513,6917.878,95.437,540.664,538.821,0.0
53792.0,STARLINK-4739,PAYLOAD,2023-09-12 13:48:56,15.08840253,0.0001331,53.22,35.0899,85.4432,274.6712,0.00011071,1.474e-05,0.0,0 STARLINK-4739,1 53792U 22111V   23255.57565941  .00001474  00000-0  11071-3 0  9991,2 53792  53.2200  35.0899 0001331  85.4432 274.6712 15.08840253 56442,6917.88,95.438,540.665,538.824,0.0
53792.0,STARLINK-4739,PAYLOAD,2023-09-12 16:59:42,15.08845834,0.0001226,53.22,34.4949,88.4205,271.6928,0.00012886,1.764e-05,0.0,0 STARLINK-4739,1 53792U 22111V   23255.70813477  .00001764  00000-0  12886-3 0  9993,2 53792  53.2200  34.4949 0001226  88.4205 271.6928 15.08845834 56463,6917.863,95.437,540.576,538.879,0.0
53792.0,STARLINK-4739,PAYLOAD,2023-09-13 02:32:01,15.08849631,0.0001244,53.2201,32.7121,88.2413,271.8722,0.00013245,1.821e-05,0.0,0 STARLINK-4739,1 53792U 22111V   23256.10557214  .00001821  00000-0  13245-3 0  9996,2 53792  53.2201  32.7121 0001244  88.2413 271.8722 15.08849631 55727,6917.851,95.437,540.577,538.855,0.0
53792.0,STARLINK-4739,PAYLOAD,2023-09-13 13:39:43,15.08849065,0.0001316,53.2194,30.6307,81.799,278.3151,0.00025581,3.787e-05,0.0,0 STARLINK-4739,1 53792U 22111V   23256.56925317  .00003787  00000-0  25581-3 0  9998,2 53792  53.2194  30.6307 0001316  81.7990 278.3151 15.08849065 56594,6917.853,95.437,540.628,538.807,0.0
53792.0,STARLINK-4739,PAYLOAD,2023-09-13 16:50:29,15.08856952,0.0001207,53.2186,30.0353,83.1711,276.9418,0.00027388,4.076e-05,0.0,0 STARLINK-4739,1 53792U 22111V   23256.70172817  .00004076  00000-0  27388-3 0  9992,2 53792  53.2186  30.0353 0001207  83.1711 276.9418 15.08856952 56612,6917.829,95.436,540.529,538.859,0.0
53792.0,STARLINK-4739,PAYLOAD,2023-09-14 08:44:21,15.08831252,0.000117,53.2197,27.0615,109.7927,250.3191,-6.2319e-05,-1.279e-05,0.0,0 STARLINK-4739,1 53792U 22111V   23257.36414202 -.00001279  00000-0 -62319-4 0  9990,2 53792  53.2197  27.0615 0001170 109.7927 250.3191 15.08831252 55916,6917.907,95.438,540.582,538.963,0.0
53792.0,STARLINK-4739,PAYLOAD,2023-09-14 13:30:31,15.08829261,0.0001126,53.2197,26.169,101.209,258.9028,-7.1577e-05,-1.426e-05,0.0,0 STARLINK-4739,1 53792U 22111V   23257.56286534 -.00001426  00000-0 -71577-4 0  9997,2 53792  53.2197  26.1690 0001126 101.2090 258.9028 15.08829261 56740,6917.913,95.438,540.557,538.999,0.0
53792.0,STARLINK-4739,PAYLOAD,2023-09-14 15:05:54,15.08830591,0.0001131,53.2191,25.8716,99.0817,261.0303,-0.00011253,-2.078e-05,0.0,0 STARLINK-4739,1 53792U 22111V   23257.62910500 -.00002078  00000-0 -11253-3 0  9999,2 53792  53.2191  25.8716 0001131  99.0817 261.0303 15.08830591 56756,6917.909,95.438,540.557,538.992,0.0
53792.0,STARLINK-4739,PAYLOAD,2023-09-15 13:21:18,15.08849536,0.0001274,53.2192,21.7104,93.6597,266.4541,0.00022009,3.217e-05,0.0,0 STARLINK-4739,1 53792U 22111V   23258.55645874  .00003217  00000-0  22009-3 0  9996,2 53792  53.2192  21.7104 0001274  93.6597 266.4541 15.08849536 56893,6917.851,95.437,540.598,538.835,0.0
53792.0,STARLINK-4739,PAYLOAD,2023-09-15 14:56:40,15.08854165,0.0001299,53.2195,21.4107,102.5476,257.5661,0.00016186,2.29e-05,0.0,0 STARLINK-4739,1 53792U 22111V   23258.62269439  .00002290  00000-0  16186-3 0  9992,2 53792  53.2195  21.4107 0001299 102.5476 257.5661 15.08854165 56101,6917.837,95.437,540.601,538.803,0.0
53792.0,STARLINK-4739,PAYLOAD,2023-09-16 08:25:56,15.08839226,0.0001084,53.2191,18.1374,116.9852,243.1251,0.00022663,3.321e-05,0.0,0 STARLINK-4739,1 53792U 22111V   23259.35134449  .00003321  00000-0  22663-3 0  9998,2 53792  53.2191  18.1374 0001084 116.9852 243.1251 15.08839226 56214,6917.883,95.438,540.498,538.998,0.0
53792.0,STARLINK-4739,PAYLOAD,2023-09-16 13:12:05,15.08836965,0.0001529,53.2198,17.246,124.3595,235.7542,0.00019568,2.827e-05,0.0,0 STARLINK-4739,1 53792U 22111V   23259.55006543  .00002827  00000-0  19568-3 0  9993,2 53792  53.2198  17.2460 0001529 124.3595 235.7542 15.08836965 57047,6917.89,95.438,540.812,538.697,0.0
53792.0,STARLINK-4739,PAYLOAD,2023-09-17 13:02:52,15.08853026,0.000126,53.2195,12.7892,100.901,259.2124,0.00015565,2.191e-05,0.0,0 STARLINK-4739,1 53792U 22111V   23260.54365778  .00002191  00000-0  15565-3 0  9999,2 53792  53.2195  12.7892 0001260 100.9010 259.2124 15.08853026 57197,6917.841,95.437,540.577,538.834,0.0
53792.0,STARLINK-4739,PAYLOAD,2023-09-17 14:38:15,15.08856239,0.0001171,53.2193,12.4919,94.25,265.8626,0.00014821,2.073e-05,0.0,0 STARLINK-4739,1 53792U 22111V   23260.60989595  .00002073  00000-0  14821-3 0  9998,2 53792  53.2193  12.4919 0001171  94.2500 265.8626 15.08856239 56404,6917.831,95.437,540.506,538.886,0.0
